start=new Date('2022-05-01T00:00:00.000Z').valueOf();
sats=[{"LAUNCH_DATE":"2021-09-14","FILE":"3423346","MEAN_MOTION_DDOT":"0.0000000000000","EPHEMERIS_TYPE":"0","CENTER_NAME":"EARTH","INCLINATION":"70.0008","OBJECT_NAME":"STARLINK-3083","ECCENTRICITY":"0.00032090","SITE":"AFWTR","REF_FRAME":"TEME","REV_AT_EPOCH":"358","EPOCH":"2022-04-30T22:00:00.999936","COUNTRY_CODE":"US","OBJECT_TYPE":"PAYLOAD","MEAN_ANOMALY":"230.5056","MEAN_ELEMENT_THEORY":"SGP4","ARG_OF_PERICENTER":"280.9689","CLASSIFICATION_TYPE":"U","TLE_LINE1":"1 49158U 21082AE  22120.91667824 -.00075234  00000-0 -66308-2 0  9998","ELEMENT_SET_NO":"999","PERIOD":"96.209","RA_OF_ASC_NODE":"225.7089","GP_ID":"202393916","NORAD_CAT_ID":"49158","APOAPSIS":"579.195","OBJECT_ID":"2021-082AE","PERIAPSIS":"574.731","MEAN_MOTION":"14.96745314","DECAY_DATE":null,"TIME_SYSTEM":"UTC","SEMIMAJOR_AXIS":"6955.098","MEAN_MOTION_DOT":"-0.00075234","RCS_SIZE":"LARGE","BSTAR":"-0.00663080000000","TLE_LINE2":"2 49158  70.0008 225.7089 0003209 280.9689 230.5056 14.96745314  3584"},{"ARG_OF_PERICENTER":"283.6555","CLASSIFICATION_TYPE":"U","MEAN_ANOMALY":"61.6132","OBJECT_TYPE":"PAYLOAD","MEAN_ELEMENT_THEORY":"SGP4","COUNTRY_CODE":"US","EPOCH":"2022-04-30T22:00:00.999936","REV_AT_EPOCH":"359","REF_FRAME":"TEME","SITE":"AFWTR","OBJECT_NAME":"STARLINK-3056","ECCENTRICITY":"0.00033000","INCLINATION":"70.0010","CENTER_NAME":"EARTH","EPHEMERIS_TYPE":"0","MEAN_MOTION_DDOT":"0.0000000000000","LAUNCH_DATE":"2021-09-14","FILE":"3423346","BSTAR":"-0.00491770000000","TLE_LINE2":"2 49159  70.0010 246.4532 0003300 283.6555  61.6132 14.98352584  3599","RCS_SIZE":"LARGE","SEMIMAJOR_AXIS":"6950.123","MEAN_MOTION_DOT":"-0.00058320","TIME_SYSTEM":"UTC","DECAY_DATE":null,"MEAN_MOTION":"14.98352584","PERIAPSIS":"569.695","OBJECT_ID":"2021-082AF","APOAPSIS":"574.282","NORAD_CAT_ID":"49159","GP_ID":"202392664","RA_OF_ASC_NODE":"246.4532","PERIOD":"96.106","ELEMENT_SET_NO":"999","TLE_LINE1":"1 49159U 21082AF  22120.91667824 -.00058320  00000-0 -49177-2 0  9991"},{"REF_FRAME":"TEME","SITE":"AFWTR","OBJECT_NAME":"STARLINK-3095","ECCENTRICITY":"0.00032870","CENTER_NAME":"EARTH","EPHEMERIS_TYPE":"0","INCLINATION":"70.0020","MEAN_MOTION_DDOT":"0.0000000000000","FILE":"3423346","LAUNCH_DATE":"2021-09-14","ARG_OF_PERICENTER":"287.4169","CLASSIFICATION_TYPE":"U","COUNTRY_CODE":"US","MEAN_ELEMENT_THEORY":"SGP4","OBJECT_TYPE":"PAYLOAD","MEAN_ANOMALY":"109.2718","EPOCH":"2022-04-30T22:00:00.999936","REV_AT_EPOCH":"355","OBJECT_ID":"2021-082AG","APOAPSIS":"574.260","NORAD_CAT_ID":"49160","RA_OF_ASC_NODE":"246.4593","GP_ID":"202392414","PERIOD":"96.105","ELEMENT_SET_NO":"999","TLE_LINE1":"1 49160U 21082AG  22120.91667824 -.00070428  00000-0 -59499-2 0  9994","RCS_SIZE":"LARGE","TLE_LINE2":"2 49160  70.0020 246.4593 0003287 287.4169 109.2718 14.98356610  3555","BSTAR":"-0.00594990000000","MEAN_MOTION_DOT":"-0.00070428","SEMIMAJOR_AXIS":"6950.111","MEAN_MOTION":"14.98356610","DECAY_DATE":null,"TIME_SYSTEM":"UTC","PERIAPSIS":"569.691"},{"RCS_SIZE":"LARGE","BSTAR":"-0.00200750000000","TLE_LINE2":"2 49161  70.0016 246.4575 0003287 275.0504  95.9052 14.98345953  3591","PERIAPSIS":"569.724","MEAN_MOTION":"14.98345953","TIME_SYSTEM":"UTC","DECAY_DATE":null,"SEMIMAJOR_AXIS":"6950.144","MEAN_MOTION_DOT":"-0.00023975","NORAD_CAT_ID":"49161","APOAPSIS":"574.293","OBJECT_ID":"2021-082AH","TLE_LINE1":"1 49161U 21082AH  22120.91667824 -.00023975  00000-0 -20075-2 0  9998","ELEMENT_SET_NO":"999","PERIOD":"96.106","RA_OF_ASC_NODE":"246.4575","GP_ID":"202393666","COUNTRY_CODE":"US","OBJECT_TYPE":"PAYLOAD","MEAN_ANOMALY":"95.9052","MEAN_ELEMENT_THEORY":"SGP4","ARG_OF_PERICENTER":"275.0504","CLASSIFICATION_TYPE":"U","REV_AT_EPOCH":"359","EPOCH":"2022-04-30T22:00:00.999936","OBJECT_NAME":"STARLINK-3080","ECCENTRICITY":"0.00032870","SITE":"AFWTR","REF_FRAME":"TEME","FILE":"3423346","LAUNCH_DATE":"2021-09-14","MEAN_MOTION_DDOT":"0.0000000000000","CENTER_NAME":"EARTH","EPHEMERIS_TYPE":"0","INCLINATION":"70.0016"},{"PERIAPSIS":"569.722","DECAY_DATE":null,"TIME_SYSTEM":"UTC","MEAN_MOTION":"14.98347309","SEMIMAJOR_AXIS":"6950.139","MEAN_MOTION_DOT":"-0.00020365","BSTAR":"-0.00170310000000","TLE_LINE2":"2 49162  70.0000 246.4604 0003284 280.3133 142.0735 14.98347309  3591","RCS_SIZE":"LARGE","TLE_LINE1":"1 49162U 21082AJ  22120.91667824 -.00020365  00000-0 -17031-2 0  9997","PERIOD":"96.106","ELEMENT_SET_NO":"999","GP_ID":"202393416","RA_OF_ASC_NODE":"246.4604","NORAD_CAT_ID":"49162","APOAPSIS":"574.287","OBJECT_ID":"2021-082AJ","REV_AT_EPOCH":"359","EPOCH":"2022-04-30T22:00:00.999936","MEAN_ANOMALY":"142.0735","OBJECT_TYPE":"PAYLOAD","MEAN_ELEMENT_THEORY":"SGP4","COUNTRY_CODE":"US","ARG_OF_PERICENTER":"280.3133","CLASSIFICATION_TYPE":"U","FILE":"3423346","LAUNCH_DATE":"2021-09-14","MEAN_MOTION_DDOT":"0.0000000000000","INCLINATION":"70.0000","CENTER_NAME":"EARTH","EPHEMERIS_TYPE":"0","ECCENTRICITY":"0.00032840","OBJECT_NAME":"STARLINK-3082","SITE":"AFWTR","REF_FRAME":"TEME"},{"BSTAR":"-0.00342970000000","TLE_LINE2":"2 49163  70.0025 225.7121 0003230 276.0906 261.5841 14.96732885 36646","RCS_SIZE":"LARGE","MEAN_MOTION_DOT":"-0.00039146","SEMIMAJOR_AXIS":"6955.136","PERIAPSIS":"574.755","DECAY_DATE":null,"TIME_SYSTEM":"UTC","MEAN_MOTION":"14.96732885","OBJECT_ID":"2021-082AK","NORAD_CAT_ID":"49163","APOAPSIS":"579.248","ELEMENT_SET_NO":"999","PERIOD":"96.210","GP_ID":"202361017","RA_OF_ASC_NODE":"225.7121","TLE_LINE1":"1 49163U 21082AK  22120.91667824 -.00039146  00000-0 -34297-2 0  9998","ARG_OF_PERICENTER":"276.0906","CLASSIFICATION_TYPE":"U","OBJECT_TYPE":"PAYLOAD","MEAN_ELEMENT_THEORY":"SGP4","MEAN_ANOMALY":"261.5841","COUNTRY_CODE":"US","REV_AT_EPOCH":"3664","EPOCH":"2022-04-30T22:00:00.999936","SITE":"AFWTR","REF_FRAME":"TEME","ECCENTRICITY":"0.00032300","OBJECT_NAME":"STARLINK-3088","INCLINATION":"70.0025","CENTER_NAME":"EARTH","EPHEMERIS_TYPE":"0","FILE":"3422994","LAUNCH_DATE":"2021-09-14","MEAN_MOTION_DDOT":"0.0000000000000"},{"TLE_LINE2":"2 49164  70.0003 225.7053 0002995 278.2569 311.7185 14.96730649  3541","BSTAR":"-0.00365290000000","RCS_SIZE":"LARGE","PERIAPSIS":"574.925","DECAY_DATE":null,"TIME_SYSTEM":"UTC","MEAN_MOTION":"14.96730649","MEAN_MOTION_DOT":"-0.00041670","SEMIMAJOR_AXIS":"6955.143","NORAD_CAT_ID":"49164","APOAPSIS":"579.091","OBJECT_ID":"2021-082AL","TLE_LINE1":"1 49164U 21082AL  22120.91667824 -.00041670  00000-0 -36529-2 0  9994","PERIOD":"96.210","ELEMENT_SET_NO":"999","GP_ID":"202392915","RA_OF_ASC_NODE":"225.7053","MEAN_ANOMALY":"311.7185","OBJECT_TYPE":"PAYLOAD","MEAN_ELEMENT_THEORY":"SGP4","COUNTRY_CODE":"US","CLASSIFICATION_TYPE":"U","ARG_OF_PERICENTER":"278.2569","REV_AT_EPOCH":"354","EPOCH":"2022-04-30T22:00:00.999936","ECCENTRICITY":"0.00029950","OBJECT_NAME":"STARLINK-3106","SITE":"AFWTR","REF_FRAME":"TEME","FILE":"3423346","LAUNCH_DATE":"2021-09-14","MEAN_MOTION_DDOT":"0.0000000000000","INCLINATION":"70.0003","EPHEMERIS_TYPE":"0","CENTER_NAME":"EARTH"},{"MEAN_ELEMENT_THEORY":"SGP4","OBJECT_TYPE":"PAYLOAD","MEAN_ANOMALY":"168.6528","COUNTRY_CODE":"US","CLASSIFICATION_TYPE":"U","ARG_OF_PERICENTER":"279.4814","EPOCH":"2022-04-30T22:00:00.999936","REV_AT_EPOCH":"360","ECCENTRICITY":"0.00032090","OBJECT_NAME":"STARLINK-3052","REF_FRAME":"TEME","SITE":"AFWTR","MEAN_MOTION_DDOT":"0.0000000000000","FILE":"3423346","LAUNCH_DATE":"2021-09-14","INCLINATION":"70.0000","EPHEMERIS_TYPE":"0","CENTER_NAME":"EARTH","TLE_LINE2":"2 49165  70.0000 246.4590 0003209 279.4814 168.6528 14.98338995  3607","BSTAR":"-0.00276820000000","RCS_SIZE":"LARGE","DECAY_DATE":null,"TIME_SYSTEM":"UTC","MEAN_MOTION":"14.98338995","PERIAPSIS":"569.800","SEMIMAJOR_AXIS":"6950.165","MEAN_MOTION_DOT":"-0.00032976","APOAPSIS":"574.260","NORAD_CAT_ID":"49165","OBJECT_ID":"2021-082AM","TLE_LINE1":"1 49165U 21082AM  22120.91667824 -.00032976  00000-0 -27682-2 0  9994","GP_ID":"202393166","RA_OF_ASC_NODE":"246.4590","ELEMENT_SET_NO":"999","PERIOD":"96.106"},{"TLE_LINE1":"1 49166U 21082AN  22120.91667824 -.00039588  00000-0 -34691-2 0  9999","PERIOD":"96.210","ELEMENT_SET_NO":"999","GP_ID":"202393917","RA_OF_ASC_NODE":"225.7083","NORAD_CAT_ID":"49166","APOAPSIS":"579.219","OBJECT_ID":"2021-082AN","PERIAPSIS":"574.807","DECAY_DATE":null,"TIME_SYSTEM":"UTC","MEAN_MOTION":"14.96729057","SEMIMAJOR_AXIS":"6955.148","MEAN_MOTION_DOT":"-0.00039588","TLE_LINE2":"2 49166  70.0012 225.7083 0003172 271.5114 292.2625 14.96729057  3549","BSTAR":"-0.00346910000000","RCS_SIZE":"LARGE","FILE":"3423346","LAUNCH_DATE":"2021-09-14","MEAN_MOTION_DDOT":"0.0000000000000","INCLINATION":"70.0012","CENTER_NAME":"EARTH","EPHEMERIS_TYPE":"0","ECCENTRICITY":"0.00031720","OBJECT_NAME":"STARLINK-3089","SITE":"AFWTR","REF_FRAME":"TEME","REV_AT_EPOCH":"354","EPOCH":"2022-04-30T22:00:00.999936","OBJECT_TYPE":"PAYLOAD","MEAN_ANOMALY":"292.2625","MEAN_ELEMENT_THEORY":"SGP4","COUNTRY_CODE":"US","CLASSIFICATION_TYPE":"U","ARG_OF_PERICENTER":"271.5114"},{"EPOCH":"2022-04-30T22:00:00.999936","REV_AT_EPOCH":"360","CLASSIFICATION_TYPE":"U","ARG_OF_PERICENTER":"276.0143","COUNTRY_CODE":"US","OBJECT_TYPE":"PAYLOAD","MEAN_ANOMALY":"197.8134","MEAN_ELEMENT_THEORY":"SGP4","EPHEMERIS_TYPE":"0","CENTER_NAME":"EARTH","INCLINATION":"70.0019","MEAN_MOTION_DDOT":"0.0000000000000","FILE":"3423346","LAUNCH_DATE":"2021-09-14","REF_FRAME":"TEME","SITE":"AFWTR","ECCENTRICITY":"0.00031790","OBJECT_NAME":"STARLINK-3054","SEMIMAJOR_AXIS":"6950.112","MEAN_MOTION_DOT":"-0.00053203","MEAN_MOTION":"14.98356112","TIME_SYSTEM":"UTC","DECAY_DATE":null,"PERIAPSIS":"569.768","RCS_SIZE":"LARGE","BSTAR":"-0.00448190000000","TLE_LINE2":"2 49167  70.0019 246.4601 0003179 276.0143 197.8134 14.98356112  3604","RA_OF_ASC_NODE":"246.4601","GP_ID":"202392665","PERIOD":"96.105","ELEMENT_SET_NO":"999","TLE_LINE1":"1 49167U 21082AP  22120.91667824 -.00053203  00000-0 -44819-2 0  9993","OBJECT_ID":"2021-082AP","APOAPSIS":"574.187","NORAD_CAT_ID":"49167"}];
